{"fetched_at":"2026-07-15T17:47:30.557Z","source":"https://celestrak.org/NORAD/elements/gp.php?NAME=SENTINEL&FORMAT=JSON","constellation":"sentinel-6","records":[{"OBJECT_NAME":"SENTINEL-6A","OBJECT_ID":"2020-086A","EPOCH":"2026-07-15T00:52:48.103104","CLASSIFICATION_TYPE":"U","MEAN_MOTION":12.80930172,"ECCENTRICITY":0.0007784,"INCLINATION":66.0412,"RA_OF_ASC_NODE":77.2098,"ARG_OF_PERICENTER":269.772,"MEAN_ANOMALY":90.2404,"EPHEMERIS_TYPE":0,"NORAD_CAT_ID":46984,"ELEMENT_SET_NO":999,"REV_AT_EPOCH":26389,"BSTAR":0.000094152,"MEAN_MOTION_DOT":-3.9e-7,"MEAN_MOTION_DDOT":0},{"OBJECT_NAME":"SENTINEL-6B","OBJECT_ID":"2025-264A","EPOCH":"2026-07-15T02:45:43.929792","CLASSIFICATION_TYPE":"U","MEAN_MOTION":12.80930155,"ECCENTRICITY":0.0007845,"INCLINATION":66.0413,"RA_OF_ASC_NODE":77.1731,"ARG_OF_PERICENTER":268.7276,"MEAN_ANOMALY":91.284,"EPHEMERIS_TYPE":0,"NORAD_CAT_ID":66514,"ELEMENT_SET_NO":999,"REV_AT_EPOCH":3074,"BSTAR":0.000081914,"MEAN_MOTION_DOT":-4.2e-7,"MEAN_MOTION_DDOT":0}]}
