SENTINEL-6A             
1 46984U 20086A   26196.03666786 -.00000039  00000+0  94152-4 0  9990
2 46984  66.0412  77.2098 0007784 269.7720  90.2404 12.80930172263894
SENTINEL-6B             
1 66514U 25264A   26196.11509178 -.00000042  00000+0  81914-4 0  9990
2 66514  66.0413  77.1731 0007845 268.7276  91.2840 12.80930155 30744
